KUIPER-00008            
1 63724U 25088A   26019.24712369  .00007111  00000+0  60091-3 0  9995
2 63724  51.8916 312.3483 0007398 296.4208  63.6002 14.99018069 40644
KUIPER-00009            
1 63725U 25088B   26019.21617523  .00003847  00000+0  53440-3 0  9991
2 63725  51.9040 325.4024 0009775 298.0504  61.9470 14.79840824 40457
KUIPER-00010            
1 63726U 25088C   26019.14067505  .00005636  00000+0  76736-3 0  9994
2 63726  51.9024 302.1932 0000625 158.8202 201.2786 14.79951161 40392
KUIPER-00011            
1 63727U 25088D   26019.09889650  .00013594  00000+0  18070-2 0  9990
2 63727  51.9016 309.9484 0011199 318.5350  41.4762 14.79934022 40416
KUIPER-00012            
1 63728U 25088E   26019.01402974  .00004149  00000+0  61754-3 0  9997
2 63728  51.9027 294.5498 0008083 327.1713  32.8745 14.76698981 40570
KUIPER-00013            
1 63729U 25088F   26019.28248502  .00014898  00000+0  19769-2 0  9992
2 63729  51.9033 326.5689 0004272 226.8580 133.2026 14.79971942 40256
KUIPER-00014            
1 63730U 25088G   26019.14501279  .00002530  00000+0  35990-3 0  9997
2 63730  51.9034 328.1401 0004668 313.5186  46.5388 14.80043306 40033
KUIPER-00015            
1 63731U 25088H   26019.26512699  .00006868  00000+0  87799-3 0  9991
2 63731  51.9009 338.0181 0009371 271.6822  88.3068 14.82304300 40369
