<?xml version="1.0" encoding="UTF-8"?>
<ndm xmlns:xsi="http://www.w3.org/2001/XMLSchema-instance" xsi:noNamespaceSchemaLocation="https://sanaregistry.org/r/ndmxml_unqualified/ndmxml-2.0.0-master-2.0.xsd">
<omm id="CCSDS_OMM_VERS" version="2.0">
<header><CREATION_DATE/><ORIGINATOR/></header><body><segment><metadata><OBJECT_NAME>KUIPER-00008</OBJECT_NAME><OBJECT_ID>2025-088A</OBJECT_ID><CENTER_NAME>EARTH</CENTER_NAME><REF_FRAME>TEME</REF_FRAME><TIME_SYSTEM>UTC</TIME_SYSTEM><MEAN_ELEMENT_THEORY>SGP4</MEAN_ELEMENT_THEORY></metadata><data><meanElements><EPOCH>2026-01-19T05:55:51.486816</EPOCH><MEAN_MOTION>14.99018069</MEAN_MOTION><ECCENTRICITY>.00073983</ECCENTRICITY><INCLINATION>51.8916</INCLINATION><RA_OF_ASC_NODE>312.3483</RA_OF_ASC_NODE><ARG_OF_PERICENTER>296.4208</ARG_OF_PERICENTER><MEAN_ANOMALY>63.6002</MEAN_ANOMALY></meanElements><tleParameters><EPHEMERIS_TYPE>0</EPHEMERIS_TYPE><CLASSIFICATION_TYPE>U</CLASSIFICATION_TYPE><NORAD_CAT_ID>63724</NORAD_CAT_ID><ELEMENT_SET_NO>999</ELEMENT_SET_NO><REV_AT_EPOCH>4064</REV_AT_EPOCH><BSTAR>.60090527E-3</BSTAR><MEAN_MOTION_DOT>.7111E-4</MEAN_MOTION_DOT><MEAN_MOTION_DDOT>0</MEAN_MOTION_DDOT></tleParameters></data></segment></body></omm>
<omm id="CCSDS_OMM_VERS" version="2.0">
<header><CREATION_DATE/><ORIGINATOR/></header><body><segment><metadata><OBJECT_NAME>KUIPER-00009</OBJECT_NAME><OBJECT_ID>2025-088B</OBJECT_ID><CENTER_NAME>EARTH</CENTER_NAME><REF_FRAME>TEME</REF_FRAME><TIME_SYSTEM>UTC</TIME_SYSTEM><MEAN_ELEMENT_THEORY>SGP4</MEAN_ELEMENT_THEORY></metadata><data><meanElements><EPOCH>2026-01-19T05:11:17.539872</EPOCH><MEAN_MOTION>14.79840824</MEAN_MOTION><ECCENTRICITY>.00097752</ECCENTRICITY><INCLINATION>51.9040</INCLINATION><RA_OF_ASC_NODE>325.4024</RA_OF_ASC_NODE><ARG_OF_PERICENTER>298.0504</ARG_OF_PERICENTER><MEAN_ANOMALY>61.9470</MEAN_ANOMALY></meanElements><tleParameters><EPHEMERIS_TYPE>0</EPHEMERIS_TYPE><CLASSIFICATION_TYPE>U</CLASSIFICATION_TYPE><NORAD_CAT_ID>63725</NORAD_CAT_ID><ELEMENT_SET_NO>999</ELEMENT_SET_NO><REV_AT_EPOCH>4045</REV_AT_EPOCH><BSTAR>.5343973E-3</BSTAR><MEAN_MOTION_DOT>.3847E-4</MEAN_MOTION_DOT><MEAN_MOTION_DDOT>0</MEAN_MOTION_DDOT></tleParameters></data></segment></body></omm>
<omm id="CCSDS_OMM_VERS" version="2.0">
<header><CREATION_DATE/><ORIGINATOR/></header><body><segment><metadata><OBJECT_NAME>KUIPER-00010</OBJECT_NAME><OBJECT_ID>2025-088C</OBJECT_ID><CENTER_NAME>EARTH</CENTER_NAME><REF_FRAME>TEME</REF_FRAME><TIME_SYSTEM>UTC</TIME_SYSTEM><MEAN_ELEMENT_THEORY>SGP4</MEAN_ELEMENT_THEORY></metadata><data><meanElements><EPOCH>2026-01-19T03:22:34.324320</EPOCH><MEAN_MOTION>14.79951161</MEAN_MOTION><ECCENTRICITY>.00006251</ECCENTRICITY><INCLINATION>51.9024</INCLINATION><RA_OF_ASC_NODE>302.1932</RA_OF_ASC_NODE><ARG_OF_PERICENTER>158.8202</ARG_OF_PERICENTER><MEAN_ANOMALY>201.2786</MEAN_ANOMALY></meanElements><tleParameters><EPHEMERIS_TYPE>0</EPHEMERIS_TYPE><CLASSIFICATION_TYPE>U</CLASSIFICATION_TYPE><NORAD_CAT_ID>63726</NORAD_CAT_ID><ELEMENT_SET_NO>999</ELEMENT_SET_NO><REV_AT_EPOCH>4039</REV_AT_EPOCH><BSTAR>.76735598E-3</BSTAR><MEAN_MOTION_DOT>.5636E-4</MEAN_MOTION_DOT><MEAN_MOTION_DDOT>0</MEAN_MOTION_DDOT></tleParameters></data></segment></body></omm>
<omm id="CCSDS_OMM_VERS" version="2.0">
<header><CREATION_DATE/><ORIGINATOR/></header><body><segment><metadata><OBJECT_NAME>KUIPER-00011</OBJECT_NAME><OBJECT_ID>2025-088D</OBJECT_ID><CENTER_NAME>EARTH</CENTER_NAME><REF_FRAME>TEME</REF_FRAME><TIME_SYSTEM>UTC</TIME_SYSTEM><MEAN_ELEMENT_THEORY>SGP4</MEAN_ELEMENT_THEORY></metadata><data><meanElements><EPOCH>2026-01-19T02:22:24.657600</EPOCH><MEAN_MOTION>14.79934022</MEAN_MOTION><ECCENTRICITY>.00111997</ECCENTRICITY><INCLINATION>51.9016</INCLINATION><RA_OF_ASC_NODE>309.9484</RA_OF_ASC_NODE><ARG_OF_PERICENTER>318.5350</ARG_OF_PERICENTER><MEAN_ANOMALY>41.4762</MEAN_ANOMALY></meanElements><tleParameters><EPHEMERIS_TYPE>0</EPHEMERIS_TYPE><CLASSIFICATION_TYPE>U</CLASSIFICATION_TYPE><NORAD_CAT_ID>63727</NORAD_CAT_ID><ELEMENT_SET_NO>999</ELEMENT_SET_NO><REV_AT_EPOCH>4041</REV_AT_EPOCH><BSTAR>.18070211E-2</BSTAR><MEAN_MOTION_DOT>.13594E-3</MEAN_MOTION_DOT><MEAN_MOTION_DDOT>0</MEAN_MOTION_DDOT></tleParameters></data></segment></body></omm>
<omm id="CCSDS_OMM_VERS" version="2.0">
<header><CREATION_DATE/><ORIGINATOR/></header><body><segment><metadata><OBJECT_NAME>KUIPER-00012</OBJECT_NAME><OBJECT_ID>2025-088E</OBJECT_ID><CENTER_NAME>EARTH</CENTER_NAME><REF_FRAME>TEME</REF_FRAME><TIME_SYSTEM>UTC</TIME_SYSTEM><MEAN_ELEMENT_THEORY>SGP4</MEAN_ELEMENT_THEORY></metadata><data><meanElements><EPOCH>2026-01-19T00:20:12.169536</EPOCH><MEAN_MOTION>14.76698981</MEAN_MOTION><ECCENTRICITY>.00080832</ECCENTRICITY><INCLINATION>51.9027</INCLINATION><RA_OF_ASC_NODE>294.5498</RA_OF_ASC_NODE><ARG_OF_PERICENTER>327.1713</ARG_OF_PERICENTER><MEAN_ANOMALY>32.8745</MEAN_ANOMALY></meanElements><tleParameters><EPHEMERIS_TYPE>0</EPHEMERIS_TYPE><CLASSIFICATION_TYPE>U</CLASSIFICATION_TYPE><NORAD_CAT_ID>63728</NORAD_CAT_ID><ELEMENT_SET_NO>999</ELEMENT_SET_NO><REV_AT_EPOCH>4057</REV_AT_EPOCH><BSTAR>.61754079E-3</BSTAR><MEAN_MOTION_DOT>.4149E-4</MEAN_MOTION_DOT><MEAN_MOTION_DDOT>0</MEAN_MOTION_DDOT></tleParameters></data></segment></body></omm>
<omm id="CCSDS_OMM_VERS" version="2.0">
<header><CREATION_DATE/><ORIGINATOR/></header><body><segment><metadata><OBJECT_NAME>KUIPER-00013</OBJECT_NAME><OBJECT_ID>2025-088F</OBJECT_ID><CENTER_NAME>EARTH</CENTER_NAME><REF_FRAME>TEME</REF_FRAME><TIME_SYSTEM>UTC</TIME_SYSTEM><MEAN_ELEMENT_THEORY>SGP4</MEAN_ELEMENT_THEORY></metadata><data><meanElements><EPOCH>2026-01-19T06:46:46.705728</EPOCH><MEAN_MOTION>14.79971942</MEAN_MOTION><ECCENTRICITY>.00042729</ECCENTRICITY><INCLINATION>51.9033</INCLINATION><RA_OF_ASC_NODE>326.5689</RA_OF_ASC_NODE><ARG_OF_PERICENTER>226.8580</ARG_OF_PERICENTER><MEAN_ANOMALY>133.2026</MEAN_ANOMALY></meanElements><tleParameters><EPHEMERIS_TYPE>0</EPHEMERIS_TYPE><CLASSIFICATION_TYPE>U</CLASSIFICATION_TYPE><NORAD_CAT_ID>63729</NORAD_CAT_ID><ELEMENT_SET_NO>999</ELEMENT_SET_NO><REV_AT_EPOCH>4025</REV_AT_EPOCH><BSTAR>.19768987E-2</BSTAR><MEAN_MOTION_DOT>.14898E-3</MEAN_MOTION_DOT><MEAN_MOTION_DDOT>0</MEAN_MOTION_DDOT></tleParameters></data></segment></body></omm>
<omm id="CCSDS_OMM_VERS" version="2.0">
<header><CREATION_DATE/><ORIGINATOR/></header><body><segment><metadata><OBJECT_NAME>KUIPER-00014</OBJECT_NAME><OBJECT_ID>2025-088G</OBJECT_ID><CENTER_NAME>EARTH</CENTER_NAME><REF_FRAME>TEME</REF_FRAME><TIME_SYSTEM>UTC</TIME_SYSTEM><MEAN_ELEMENT_THEORY>SGP4</MEAN_ELEMENT_THEORY></metadata><data><meanElements><EPOCH>2026-01-19T03:28:49.105056</EPOCH><MEAN_MOTION>14.80043306</MEAN_MOTION><ECCENTRICITY>.00046682</ECCENTRICITY><INCLINATION>51.9034</INCLINATION><RA_OF_ASC_NODE>328.1401</RA_OF_ASC_NODE><ARG_OF_PERICENTER>313.5186</ARG_OF_PERICENTER><MEAN_ANOMALY>46.5388</MEAN_ANOMALY></meanElements><tleParameters><EPHEMERIS_TYPE>0</EPHEMERIS_TYPE><CLASSIFICATION_TYPE>U</CLASSIFICATION_TYPE><NORAD_CAT_ID>63730</NORAD_CAT_ID><ELEMENT_SET_NO>999</ELEMENT_SET_NO><REV_AT_EPOCH>4003</REV_AT_EPOCH><BSTAR>.35990099E-3</BSTAR><MEAN_MOTION_DOT>.253E-4</MEAN_MOTION_DOT><MEAN_MOTION_DDOT>0</MEAN_MOTION_DDOT></tleParameters></data></segment></body></omm>
<omm id="CCSDS_OMM_VERS" version="2.0">
<header><CREATION_DATE/><ORIGINATOR/></header><body><segment><metadata><OBJECT_NAME>KUIPER-00015</OBJECT_NAME><OBJECT_ID>2025-088H</OBJECT_ID><CENTER_NAME>EARTH</CENTER_NAME><REF_FRAME>TEME</REF_FRAME><TIME_SYSTEM>UTC</TIME_SYSTEM><MEAN_ELEMENT_THEORY>SGP4</MEAN_ELEMENT_THEORY></metadata><data><meanElements><EPOCH>2026-01-19T06:21:46.971936</EPOCH><MEAN_MOTION>14.82304300</MEAN_MOTION><ECCENTRICITY>.00093717</ECCENTRICITY><INCLINATION>51.9009</INCLINATION><RA_OF_ASC_NODE>338.0181</RA_OF_ASC_NODE><ARG_OF_PERICENTER>271.6822</ARG_OF_PERICENTER><MEAN_ANOMALY>88.3068</MEAN_ANOMALY></meanElements><tleParameters><EPHEMERIS_TYPE>0</EPHEMERIS_TYPE><CLASSIFICATION_TYPE>U</CLASSIFICATION_TYPE><NORAD_CAT_ID>63731</NORAD_CAT_ID><ELEMENT_SET_NO>999</ELEMENT_SET_NO><REV_AT_EPOCH>4036</REV_AT_EPOCH><BSTAR>.87798992E-3</BSTAR><MEAN_MOTION_DOT>.6868E-4</MEAN_MOTION_DOT><MEAN_MOTION_DDOT>0</MEAN_MOTION_DDOT></tleParameters></data></segment></body></omm>

</ndm>
